*******************************************************************************
Revised: Apr 03, 2003                  Earth                                399
 
PHYSICAL PROPERTIES:
 Mean radius, km          = 6371.01+-0.02   Mass, 10^24 kg = 5.9736
 Equ. radius, km          = 6378.136        Mass layers:
 Polar axis, km           = 6356.752          Atmos          = 5.1   x 10^18 kg
 Flattening               = 1/298.257         oceans         = 1.4   x 10^21 kg
 Density, gm cm^-3        = 5.515             crust          = 2.6   x 10^22 kg
 J2  (GEM T2, 1990)       = 0.0010826265      mantle         = 4.043 x 10^24 kg
 gp, m s^-2 (polar)       = 9.8321863685      outer core     = 1.835 x 10^24 kg
 ge, m s^-2 (equatorial)  = 9.7803267715      inner core     = 9.675 x 10^22 kg
 go, m s^-2               = 9.82022         Fluid core rad   = 3480 km
 GM, km^3 s^-2            = 398600.440      Inner core rad   = 1215 km
 Mean rot. rate, rad s^-1 = 7.292115*10^-5  Surface Area:
 Sidereal period, hr      = 23.93419          land           = 1.48 x 10^8 km
 Mean solar day, days     = 1.002738          sea            = 3.62 x 10^8 km
 Moment of inertia        = 0.3308          Love no., k2     = 0.299
 Mean Temperature, K      = 270             Atm. pressure    = 1.0 bar
 Solar constant, W/m^2    = 1367.6          Vis. mag. V(1,0) = -3.86
 Volume, 10^10 km^3       = 108.321         Geometric albedo = 0.367 

DYNAMICAL CHARACTERISTICS:
 Obliquity to orbit, deg  = 23.45           Sidereal period  = 1.0000174  yrs
 Orbit velocity, km s^-1  = 29.7859         Sidereal period  = 365.25636  days
 Mean daily motion, n     = 0.9856474 deg/d Escape velocity  = 11.186 km s^-2
 Hill's sphere radius     = 234.9           Magnetic moment  = 0.61 gauss Rp^3
*******************************************************************************
 
 
*******************************************************************************
Ephemeris / WWW_USER Sun Dec 13 16:27:28 2009  Pasadena, USA     / Horizons    
*******************************************************************************
Target body name: Earth (399)                     {source: DE405}
Center body name: Solar System Barycenter (0)     {source: DE405}
Center-site name: BODY CENTER
*******************************************************************************
Start time      : A.D. 1971-Oct-26 00:00:00.0000 CT 
Stop  time      : A.D. 2009-Nov-28 00:00:00.0000 CT 
Step-size       : 1440 minutes
*******************************************************************************
Center geodetic : 0.00000000,0.00000000,0.0000000 {E-lon(deg),Lat(deg),Alt(km)}
Center cylindric: 0.00000000,0.00000000,0.0000000 {E-lon(deg),Dxy(km),Dz(km)}
Center radii    : (undefined)                                                  
Output units    : AU-D                                                         
Output format   : 03
Reference frame : ICRF/J2000.0                                                 
Output type     : GEOMETRIC cartesian states
Coordinate systm: Ecliptic and Mean Equinox of Reference Epoch                 
*******************************************************************************
JDCT 
   X     Y     Z
   VX    VY    VZ
   LT    RG    RR
*******************************************************************************
$$SOE
2446386.500000000 = A.D. 1985-Nov-17 00:00:00.0000 (CT)
   5.678195920287754E-01  8.156443040275629E-01 -2.614747116025207E-05
  -1.434898790630765E-02  9.848526136883700E-03  6.473443647123357E-07
   5.739873653482342E-03  9.938283153885397E-01 -1.154547797838025E-04
2446387.500000000 = A.D. 1985-Nov-18 00:00:00.0000 (CT)
   5.533844789931107E-01  8.253678934912048E-01 -2.558332740150589E-05
  -1.452046790987127E-02  9.598173118822877E-03  4.810107791808121E-07
   5.739210598362001E-03  9.937135109532788E-01 -1.140949092969902E-04
2446388.500000000 = A.D. 1985-Nov-19 00:00:00.0000 (CT)
   5.387801923160784E-01  8.348397117671926E-01 -2.518387224273406E-05
  -1.468733960768843E-02  9.345003747556410E-03  3.193426879313940E-07
   5.738556410595736E-03  9.936002418527821E-01 -1.123866789752937E-04
2446389.500000000 = A.D. 1985-Nov-20 00:00:00.0000 (CT)
   5.240113273000686E-01  8.440569985296407E-01 -2.494063976234642E-05
  -1.484962857018065E-02  9.089126389345526E-03  1.696213475452330E-07
   5.737913045879037E-03  9.934888467052265E-01 -1.103513563538174E-04
2446390.500000000 = A.D. 1985-Nov-21 00:00:00.0000 (CT)
   5.090824556807323E-01  8.530170919270120E-01 -2.483879842857406E-05
  -1.500735580044598E-02  8.830630762542910E-03  3.734512142941656E-08
   5.737282312562608E-03  9.933796386168318E-01 -1.080176882797503E-04
2446391.500000000 = A.D. 1985-Nov-22 00:00:00.0000 (CT)
   4.939981312989935E-01  8.617174130939207E-01 -2.485877275536280E-05
  -1.516053603569486E-02  8.569593977918146E-03 -7.343800883407316E-08
   5.736665843177322E-03  9.932729002515547E-01 -1.054172678579539E-04
2446392.500000000 = A.D. 1985-Nov-23 00:00:00.0000 (CT)
   4.787628962423063E-01  8.701554557696984E-01 -2.497752700986241E-05
  -1.530917821926513E-02  8.306084649893568E-03 -1.598083864677550E-07
   5.736065085239352E-03  9.931688822390529E-01 -1.025823774642090E-04
2446393.500000000 = A.D. 1985-Nov-24 00:00:00.0000 (CT)
   4.633812860625592E-01  8.783287790481090E-01 -2.516957034999790E-05
  -1.545328667784081E-02  8.040165105327663E-03 -2.197470171009275E-07
   5.735481299239223E-03  9.930678028264941E-01 -9.954551799114382E-05
2446394.500000000 = A.D. 1985-Nov-25 00:00:00.0000 (CT)
   4.478578338647095E-01  8.862350015826136E-01 -2.540779073350793E-05
  -1.559286209499353E-02  7.771892185933345E-03 -2.520198956010955E-07
   5.734915556413281E-03  9.929698474927023E-01 -9.633983524543135E-05
2446395.500000000 = A.D. 1985-Nov-26 00:00:00.0000 (CT)
   4.321970737199392E-01  8.938717961481799E-01 -2.566422215250170E-05
  -1.572790184957523E-02  7.501317260628484E-03 -2.561553087762582E-07
   5.734368733002568E-03  9.928751679541111E-01 -9.299982345388438E-05
2446396.500000000 = A.D. 1985-Nov-27 00:00:00.0000 (CT)
   4.164035441036852E-01  9.012368840590373E-01 -2.591082119785929E-05
  -1.585839963663649E-02  7.228486008353076E-03 -2.324786882141115E-07
   5.733841500699863E-03  9.927838805107198E-01 -8.956188914559700E-05
2446397.500000000 = A.D. 1985-Nov-28 00:00:00.0000 (CT)
   4.004817920153088E-01  9.083280294348750E-01 -2.612029103256032E-05
  -1.598434452224183E-02  6.953438385940159E-03 -1.821664453040272E-07
   5.733334314815015E-03  9.926960639969848E-01 -8.606455681652574E-05
2446398.500000000 = A.D. 1985-Nov-29 00:00:00.0000 (CT)
   3.844363782133192E-01  9.151430336273855E-01 -2.626695496716204E-05
  -1.610571970777219E-02  6.676208999728292E-03 -1.072870704684018E-07
   5.732847402414788E-03  9.926117577282979E-01 -8.254827970447922E-05
2446399.500000000 = A.D. 1985-Nov-30 00:00:00.0000 (CT)
   3.682718837108376E-01  9.216797302331287E-01 -2.632765682965991E-05
  -1.622250128653433E-02  6.396827892685654E-03 -1.081221787539232E-08
   5.732380752458573E-03  9.925309597930368E-01 -7.905496524452709E-05
2446400.500000000 = A.D. 1985-Dec-01 00:00:00.0000 (CT)
   3.519929174383800E-01  9.279359810428550E-01 -2.628265695612736E-05
  -1.633465716745795E-02  6.115321596225039E-03  1.034015777579767E-07
   5.731934109052888E-03  9.924536258846184E-01 -7.562740233267244E-05
2446401.500000000 = A.D. 1985-Dec-02 00:00:00.0000 (CT)
   3.356041248968177E-01  9.339096730868851E-01 -2.611650135569622E-05
  -1.644214615067525E-02  5.831714238410198E-03  2.306448004873090E-07
   5.731506967878358E-03  9.923796686828499E-01 -7.230875508767971E-05
2446402.500000000 = A.D. 1985-Dec-03 00:00:00.0000 (CT)
   3.191101977426788E-01  9.395987167594765E-01 -2.581886110536237E-05
  -1.654491693652825E-02  5.546028589693922E-03  3.653793816668616E-07
   5.731098575226141E-03  9.923089576870907E-01 -6.914215392910253E-05
2446403.500000000 = A.D. 1985-Dec-04 00:00:00.0000 (CT)
   3.025158845398779E-01  9.450010449949341E-01 -2.538535658588140E-05
  -1.664290672346318E-02  5.258287167842586E-03  5.012444851068089E-07
   5.730707929525476E-03  9.922413194807391E-01 -6.617018632834198E-05
2446404.500000000 = A.D. 1985-Dec-05 00:00:00.0000 (CT)
   2.858260032505827E-01  9.501146137596082E-01 -2.481837991027503E-05
  -1.673603909993666E-02  4.968513876303296E-03  6.310604249890118E-07
   5.730333787180420E-03  9.921765387418328E-01 -6.343381126399507E-05
2446405.500000000 = A.D. 1985-Dec-06 00:00:00.0000 (CT)
   2.690454561972835E-01  9.549374047876302E-01 -2.412789091549850E-05
  -1.682422126021089E-02  4.676737019611531E-03  7.468922749208684E-07
   5.729974678034694E-03  9.921143609207025E-01 -6.096997698955120E-05
2446406.500000000 = A.D. 1985-Dec-07 00:00:00.0000 (CT)
   2.521792478888519E-01  9.594674324558692E-01 -2.333207413888760E-05
  -1.690734125562584E-02  4.382994735794486E-03  8.402873692738241E-07
   5.729628940244466E-03  9.920544982780082E-01 -5.880716808448463E-05
2446407.500000000 = A.D. 1985-Dec-08 00:00:00.0000 (CT)
   2.352325049091918E-01  9.637027576374769E-01 -2.245760954219490E-05
  -1.698526699444320E-02  4.087343572878824E-03  9.028352420529401E-07
   5.729294787947611E-03  9.919966416013085E-01 -5.695850869360492E-05
2446408.500000000 = A.D. 1985-Dec-09 00:00:00.0000 (CT)
   2.182104948484946E-01  9.676415115712512E-01 -2.153917037604953E-05
  -1.705784964426471E-02  3.789869694943429E-03  9.271631666836958E-07
   5.728970424364785E-03  9.919404797879038E-01 -5.541319539168452E-05
2446409.500000000 = A.D. 1985-Dec-10 00:00:00.0000 (CT)
   2.011186384935184E-01  9.712819312012010E-01 -2.061771845089977E-05
  -1.712493404220768E-02  3.490699930318895E-03  9.083155015106255E-07
   5.728654203369040E-03  9.918857278197482E-01 -5.412888452532300E-05
